[{"OBJECT_NAME":"LATINSAT A","OBJECT_ID":"2002-058H","EPOCH":"2026-03-09T22:00:26.760960","MEAN_MOTION":14.85263124,"ECCENTRICITY":0.00565777,"INCLINATION":64.5529,"RA_OF_ASC_NODE":269.8516,"ARG_OF_PERICENTER":262.8341,"MEAN_ANOMALY":96.6332,"EPHEMERIS_TYPE":0,"CLASSIFICATION_TYPE":"U","NORAD_CAT_ID":27612,"ELEMENT_SET_NO":999,"REV_AT_EPOCH":25288,"BSTAR":0.00015857266,"MEAN_MOTION_DOT":1.248e-5,"MEAN_MOTION_DDOT":0},{"OBJECT_NAME":"COSMOS 2251 DEB","OBJECT_ID":"1993-036BDM","EPOCH":"2026-03-07T08:26:45.291840","MEAN_MOTION":15.06951358,"ECCENTRICITY":0.00416459,"INCLINATION":73.8833,"RA_OF_ASC_NODE":199.9445,"ARG_OF_PERICENTER":129.9164,"MEAN_ANOMALY":230.5698,"EPHEMERIS_TYPE":0,"CLASSIFICATION_TYPE":"U","NORAD_CAT_ID":36551,"ELEMENT_SET_NO":999,"REV_AT_EPOCH":68204,"BSTAR":0.0035281021,"MEAN_MOTION_DOT":0.00054188,"MEAN_MOTION_DDOT":0}]
